NUSANTARA TIGA (SATRIA) 
1 57045U 23086A   26158.58838443 -.00000220  00000+0  00000+0 0  9998
2 57045   0.0374 344.8283 0003568   0.3771 268.6018  1.00269379  9668
H2SAT (HEINRICH HERTZ)  
1 57213U 23093A   26159.12999264  .00000018  00000+0  00000+0 0  9997
2 57213   0.0512 114.6889 0001578  19.7420 169.5787  1.00272207 10824
SYRACUSE 4B             
1 57214U 23093B   26158.70078786  .00000000  00000+0  00000+0 0  9999
2 57214   0.0162 349.1003 0000195 207.3827 305.4865  1.00270890  6873
JUPITER 3 (ECHOSTAR 24) 
1 57479U 23108A   26157.55630075  .00000000  00000+0  00000+0 0  9996
2 57479   0.0197 338.3633 0001174  95.9959 285.6537  1.00270321 10541
GALAXY 37 (G-37)        
1 57493U 23112A   26159.10471411  .00000063  00000+0  00000+0 0  9996
2 57493   0.0184 336.1835 0002012 101.2872  89.7311  1.00271711 10457
LUDI TANCE-4 01A        
1 57624U 23120A   26158.65179637 -.00000162  00000+0  00000+0 0  9996
2 57624  15.1081 194.2074 0000826  74.7479 311.4666  1.00271349 10457
TJS-10                  
1 58204U 23169A   26158.72962310 -.00000233  00000+0  00000+0 0  9999
2 58204   2.5191  80.6033 0003942  98.9434  71.6525  1.00268040  9448
ZHONGXING-6E            
1 58253U 23172A   26159.14129034 -.00000346  00000+0  00000+0 0  9997
2 58253   0.0161  15.8975 0002394  66.1781 340.8637  1.00269602  9562
YAOGAN-41               
1 58582U 23197A   26158.94034919 -.00000349  00000+0  00000+0 0  9996
2 58582   3.1463 312.9828 0014123 192.6909 212.3517  1.00275765  9235
OVZON-3                 
1 58698U 24003A   26159.14836492  .00000067  00000+0  00000+0 0  9996
2 58698   0.0023 250.7951 0000164 251.1510 227.7150  1.00272740  7350
INSAT-3DS               
1 58990U 24033A   26159.07480794 -.00000141  00000+0  00000+0 0  9990
2 58990   0.0143 154.3210 0001289 278.9209 292.2390  1.00273229 46973
MERAH PUTIH 2           
1 58995U 24035A   26159.00958968 -.00000343  00000+0  00000+0 0  9997
2 58995   0.0189 304.8221 0001286 128.6084 299.3910  1.00271563  8491
HULIANWAN GAOGUI-01 (H*)
1 59069U 24040A   26159.15947676  .00000171  00000+0  00000+0 0  9994
2 59069   0.0687 327.0334 0003240  73.7713 306.7884  1.00271178  7236
EUTELSAT 36D            
1 59346U 24059A   26159.00582355  .00000171  00000+0  00000+0 0  9995
2 59346   0.0170  18.8846 0000522 145.9230 129.5775  1.00273202  8051
PAKSAT-MM1              
1 59915U 24104A   26154.64578588  .00000165  00000+0  00000+0 0  9999
2 59915   0.0154  42.0049 0002046  27.2826  93.4750  1.00274914  7394
ASTRA 1P (SES-24)       
1 60086U 24115A   26158.70590123  .00000134  00000+0  00000+0 0  9998
2 60086   0.0623   9.5951 0000838   1.1553 158.6868  1.00269256  7107
GOES 19                 
1 60133U 24119A   26159.11491604  .00000000  00000+0  00000+0 0  9997
2 60133   0.0154  90.4331 0000478  64.7853  67.4679  1.00270085  6870
ZHONGXING-3A            
1 60179U 24122A   26157.84886203 -.00000300  00000+0  00000+0 0  9996
2 60179   0.0425 119.1641 0001410 341.0815 202.1910  1.00273610  7201
TURKSAT 6A              
1 60233U 24127A   26159.15947676  .00000000  00000+0  00000+0 0  9996
2 60233   0.0156 179.6645 0001656 314.1324 222.1636  1.00271359  6929
HULIANWAN GAOGUI-02 (H*)
1 60327U 24135A   26157.80558477 -.00000159  00000+0  00000+0 0  9992
2 60327   0.0426 350.4048 0007748  17.7441 330.2802  1.00271529  7390
ZHONGXING-4A            
1 60606U 24151A   26159.01062969 -.00000347  00000+0  00000+0 0  9990
2 60606   1.3390 270.9438 0000525 202.9270 264.5930  1.00270351  6669
HULIANWAN GAOGUI-03 (H*)
1 61503U 24181A   26159.18572028 -.00000225  00000+0  00000+0 0  9995
2 61503   0.0448 354.5123 0001289 106.7845 144.9766  1.00266248  6739
DSN-3 (KIRAMEKI-3)      
1 61733U 24198A   26158.94450920 -.00000235  00000+0  00000+0 0  9998
2 61733   0.0195 284.8278 0000891 226.4156 229.1969  1.00270846  5821
KOREASAT 6A             
1 61910U 24206A   26159.01019634 -.00000346  00000+0  00000+0 0  9990
2 61910   0.0387 135.2250 0000984 282.3363 318.5233  1.00272865  5745
OPTUS-X (ADS-01)        
1 62006U 24212A   26158.87567389 -.00000128  00000+0  00000+0 0  9990
2 62006   0.0158 314.0048 0001761 162.0014 251.9230  1.00271262  5669
GSAT-N2 (GSAT-20)       
1 62028U 24214A   26159.14333936 -.00000004  00000+0  00000+0 0  9999
2 62028   0.0140 161.0486 0002099 270.1374 304.9801  1.00269135  5800
SXM-9                   
1 62259U 24234A   26158.11483690 -.00000191  00000+0  00000+0 0  9993
2 62259   0.0153 323.8392 0004717 351.9074 255.9673  1.00271393  5472
TJS-12                  
1 62374U 24246A   26159.17350463 -.00000215  00000+0  00000+0 0  9999
2 62374   0.6913 298.2361 0002225  87.2397  80.1153  1.00272562  5470
NUVIEW ALPHA            
1 62455U 24252B   26159.11335604 -.00000200  00000+0  00000+0 0  9994
2 62455   0.0563  33.2602 0000943  26.2791 154.7020  1.00272194  3735
AGILA                   
1 62456U 24252C   26158.87480721 -.00000166  00000+0  00000+0 0  9999
2 62456   0.0547 133.3017 0000931 325.4368 264.6174  1.00271975  5066
