OBJECT_NAME,OBJECT_ID,EPOCH,MEAN_MOTION,ECCENTRICITY,INCLINATION,RA_OF_ASC_NODE,ARG_OF_PERICENTER,MEAN_ANOMALY,EPHEMERIS_TYPE,CLASSIFICATION_TYPE,NORAD_CAT_ID,ELEMENT_SET_NO,REV_AT_EPOCH,BSTAR,MEAN_MOTION_DOT,MEAN_MOTION_DDOT
NUSANTARA TIGA (SATRIA),2023-086A,2026-06-07T14:07:16.414752,1.00269379,.0003568,0.0374,344.8283,0.3771,268.6018,0,U,57045,999,966,0,-.22E-5,0
H2SAT (HEINRICH HERTZ),2023-093A,2026-06-08T03:07:11.364096,1.00272207,.0001578,0.0512,114.6889,19.7420,169.5787,0,U,57213,999,1082,0,.18E-6,0
SYRACUSE 4B,2023-093B,2026-06-07T16:49:08.071104,1.00270890,.0000195,0.0162,349.1003,207.3827,305.4865,0,U,57214,999,687,0,0,0
JUPITER 3 (ECHOSTAR 24),2023-108A,2026-06-06T13:21:04.384800,1.00270321,.0001174,0.0197,338.3633,95.9959,285.6537,0,U,57479,999,1054,0,0,0
GALAXY 37 (G-37),2023-112A,2026-06-08T02:30:47.299104,1.00271711,.0002012,0.0184,336.1835,101.2872,89.7311,0,U,57493,999,1045,0,.63E-6,0
LUDI TANCE-4 01A,2023-120A,2026-06-07T15:38:35.206368,1.00271349,.0000826,15.1081,194.2074,74.7479,311.4666,0,U,57624,999,1045,0,-.162E-5,0
TJS-10,2023-169A,2026-06-07T17:30:39.435840,1.00268040,.0003942,2.5191,80.6033,98.9434,71.6525,0,U,58204,999,944,0,-.233E-5,0
ZHONGXING-6E,2023-172A,2026-06-08T03:23:27.485376,1.00269602,.0002394,0.0161,15.8975,66.1781,340.8637,0,U,58253,999,956,0,-.346E-5,0
YAOGAN-41,2023-197A,2026-06-07T22:34:06.170016,1.00275765,.0014123,3.1463,312.9828,192.6909,212.3517,0,U,58582,999,923,0,-.349E-5,0
OVZON-3,2024-003A,2026-06-08T03:33:38.729088,1.00272740,.0000164,0.0023,250.7951,251.1510,227.7150,0,U,58698,999,735,0,.67E-6,0
INSAT-3DS,2024-033A,2026-06-08T01:47:43.406016,1.00273229,.0001289,0.0143,154.3210,278.9209,292.2390,0,U,58990,999,4697,0,-.141E-5,0
MERAH PUTIH 2,2024-035A,2026-06-08T00:13:48.548352,1.00271563,.0001286,0.0189,304.8221,128.6084,299.3910,0,U,58995,999,849,0,-.343E-5,0
HULIANWAN GAOGUI-01 (HG-01),2024-040A,2026-06-08T03:49:38.792064,1.00271178,.000324,0.0687,327.0334,73.7713,306.7884,0,U,59069,999,723,0,.171E-5,0
EUTELSAT 36D,2024-059A,2026-06-08T00:08:23.154720,1.00273202,.0000522,0.0170,18.8846,145.9230,129.5775,0,U,59346,999,805,0,.171E-5,0
PAKSAT-MM1,2024-104A,2026-06-03T15:29:55.900032,1.00274914,.00020461,0.0154,42.0049,27.2826,93.4750,0,U,59915,999,739,0,.165E-5,0
ASTRA 1P (SES-24),2024-115A,2026-06-07T16:56:29.866272,1.00269256,.0000838,0.0623,9.5951,1.1553,158.6868,0,U,60086,999,710,0,.134E-5,0
GOES 19,2024-119A,2026-06-08T02:45:28.745856,1.00270085,.0000478,0.0154,90.4331,64.7853,67.4679,0,U,60133,999,687,0,0,0
ZHONGXING-3A,2024-122A,2026-06-06T20:22:21.679392,1.00273610,.000141,0.0425,119.1641,341.0815,202.1910,0,U,60179,999,720,0,-.3E-5,0
TURKSAT 6A,2024-127A,2026-06-08T03:49:38.792064,1.00271359,.0001656,0.0156,179.6645,314.1324,222.1636,0,U,60233,999,692,0,0,0
HULIANWAN GAOGUI-02 (HG-02),2024-135A,2026-06-06T19:20:02.524128,1.00271529,.00077488,0.0426,350.4048,17.7441,330.2802,0,U,60327,999,739,0,-.159E-5,0
ZHONGXING-4A,2024-151A,2026-06-08T00:15:18.405216,1.00270351,.0000525,1.3390,270.9438,202.9270,264.5930,0,U,60606,999,666,0,-.347E-5,0
HULIANWAN GAOGUI-03 (HG-03),2024-181A,2026-06-08T04:27:26.232192,1.00266248,.0001289,0.0448,354.5123,106.7845,144.9766,0,U,61503,999,673,0,-.225E-5,0
DSN-3 (KIRAMEKI-3),2024-198A,2026-06-07T22:40:05.594880,1.00270846,.0000891,0.0195,284.8278,226.4156,229.1969,0,U,61733,999,582,0,-.235E-5,0
KOREASAT 6A,2024-206A,2026-06-08T00:14:40.963776,1.00272865,.0000984,0.0387,135.2250,282.3363,318.5233,0,U,61910,999,574,0,-.346E-5,0
OPTUS-X (ADS-01),2024-212A,2026-06-07T21:00:58.224096,1.00271262,.0001761,0.0158,314.0048,162.0014,251.9230,0,U,62006,999,566,0,-.128E-5,0
GSAT-N2 (GSAT-20),2024-214A,2026-06-08T03:26:24.520704,1.00269135,.0002099,0.0140,161.0486,270.1374,304.9801,0,U,62028,999,580,0,-.4E-7,0
SXM-9,2024-234A,2026-06-07T02:45:21.908160,1.00271393,.0004717,0.0153,323.8392,351.9074,255.9673,0,U,62259,999,547,0,-.191E-5,0
TJS-12,2024-246A,2026-06-08T04:09:50.800032,1.00272562,.0002225,0.6913,298.2361,87.2397,80.1153,0,U,62374,999,547,0,-.215E-5,0
NUVIEW ALPHA,2024-252B,2026-06-08T02:43:13.961856,1.00272194,.0000943,0.0563,33.2602,26.2791,154.7020,0,U,62455,999,373,0,-.2E-5,0
AGILA,2024-252C,2026-06-07T20:59:43.342944,1.00271975,.0000931,0.0547,133.3017,325.4368,264.6174,0,U,62456,999,506,0,-.166E-5,0
